214P/LINEAR,e,15.1843,348.2556,190.2623,3.616872,0.1432862,0.48584708,268.1013,12/24.0/2020,2000,g 13.0,4.0
# From MPEC 2020-SI8
215P/NEAT,e,10.5815,56.6833,262.1136,4.327503,0.1094833,0.16689214,43.9611,12/24.0/2020,2000,g 11.0,4.0
# From MPC100284
216P/LINEAR,e,9.0547,359.8125,151.3503,3.869349,0.1294933,0.44596401,216.1847,12/24.0/2020,2000,g 13.0,4.0
# From MPC108598
217P/LINEAR,e,12.8645,125.4789,246.8420,3.951214,0.1254898,0.68851718,157.5969,12/24.0/2020,2000,g 12.0,4.0
# From MPEC 2020-K19
218P/LINEAR,e,2.7255,175.9722,59.7904,3.094412,0.1810659,0.62193265,14.7061,12/24.0/2020,2000,g 16.0,4.0
# From MPC100284
219P/LINEAR,e,11.5303,230.9836,107.3905,3.650343,0.1413200,0.35376439,197.9935,12/24.0/2020,2000,g 11.0,4.0
# From MPEC 2020-W26
220P/McNaught,e,8.1287,150.1023,180.5307,3.116065,0.1791820,0.50182293,2.3960,12/24.0/2020,2000,g 15.0,4.0
# From MPC 93589
221P/LINEAR,e,11.4262,229.7109,40.0745,3.457018,0.1533387,0.49279002,304.9516,12/24.0/2020,2000,g 14.5,4.0
# From MPC 92277
222P/LINEAR,e,5.0961,6.7867,346.2369,2.899410,0.1996364,0.71451652,113.3593,12/24.0/2020,2000,g 20.0,4.0
# From MPEC 2020-HN5
223P/Skiff,e,27.0205,346.7716,37.8187,4.159214,0.1161949,0.41582114,80.9450,12/24.0/2020,2000,g 12.0,4.0
# From MPC 75727
224P/LINEAR-NEAT,e,13.3072,40.2691,16.7467,3.440838,0.1544215,0.40769219,260.3976,12/24.0/2020,2000,g 15.5,4.0
# From MPC 75727
225P/LINEAR,e,21.3555,14.1877,3.8656,3.650594,0.1413054,0.63785394,224.7109,12/24.0/2020,2000,g 18.0,4.0
# From MPC106349
226P/Pigott-LINEAR-Kowalski,e,44.0146,54.0027,341.0428,3.767659,0.1347711,0.52833367,211.9068,12/24.0/2020,2000,g 12.5,4.0
# From MPC102956
227P/Catalina-LINEAR,e,6.5076,49.0048,90.4667,3.563765,0.1465010,0.50838770,187.1115,12/24.0/2020,2000,g 16.5,2.0
# From MPEC 2020-L06
228P/LINEAR,e,7.9108,30.9807,115.2410,4.172280,0.1156495,0.17655404,33.3919,12/24.0/2020,2000,g 14.5,2.0
# From MPC106349
229P/Gibbs,e,26.0891,157.9039,223.9667,3.930583,0.1264791,0.37680237,166.0652,12/24.0/2020,2000,g 13.0,4.0
# From MPC110497
230P/LINEAR,e,15.4979,107.0259,313.4636,3.453623,0.1535648,0.54688320,290.9036,12/24.0/2020,2000,g 13.0,4.0
# From MPEC 2020-K19
231P/LINEAR-NEAT,e,12.3359,133.0146,43.0921,4.022209,0.1221820,0.24771288,68.0928,12/24.0/2020,2000,g 14.5,2.0
# From MPC112394
232P/Hill,e,14.6325,56.0172,53.4456,4.481020,0.1039055,0.33419382,65.2499,12/24.0/2020,2000,g 11.5,4.0
# From MPC 92986
233P/La Sagra,e,11.2835,74.9261,27.0550,3.030937,0.1867836,0.41184666,15.5660,12/24.0/2020,2000,g 15.0,4.0
# From MPC110497
234P/LINEAR,e,11.5281,179.5636,357.3078,3.801656,0.1329673,0.25442254,173.5046,12/24.0/2020,2000,g 12.0,4.0
# From MPC110497
235P/LINEAR,e,8.9061,203.6428,333.4137,3.974353,0.1243954,0.32123535,126.0471,12/24.0/2020,2000,g 12.0,4.0
# From MPC107688
236P/LINEAR,e,16.3350,245.6389,119.2101,3.730721,0.1367776,0.50869275,154.4588,12/24.0/2020,2000,g 14.0,4.0
# From MPC109593
237P/LINEAR,e,14.0183,245.4057,25.1965,3.512487,0.1497207,0.43461697,229.5509,12/24.0/2020,2000,g 14.5,2.0
# From MPC107688
238P/Read,e,1.2644,51.6419,324.6251,3.164328,0.1750982,0.25228734,267.2392,12/24.0/2020,2000,g 14.5,4.0
# From MPC112394
239P/LINEAR,e,11.2987,255.9145,220.4524,4.471265,0.1042458,0.63031448,74.4491,12/24.0/2020,2000,g 17.5,2.0
# From MPC109593
240P/NEAT,e,23.5074,74.9182,351.9804,3.867484,0.1295869,0.44879543,123.5600,12/24.0/2020,2000,g 11.0,4.0
# From MPEC 2020-W26
241P/LINEAR,e,21.1068,305.4841,111.3976,4.918293,0.0903613,0.61008447,340.6870,12/24.0/2020,2000,g 13.5,4.0
# From MPC 81861
242P/Spahr,e,32.4856,180.4451,246.1359,5.479928,0.0768319,0.27801149,246.9458,12/24.0/2020,2000,g  8.0,4.0
# From MPC111774
243P/NEAT,e,7.6408,87.6493,283.5239,3.831376,0.1314232,0.35993860,111.8097,12/24.0/2020,2000,g 12.5,4.0
# From MPEC 2020-W26
244P/Scotti,e,2.2593,353.9900,92.9219,4.894970,0.0910079,0.19860969,297.0075,12/24.0/2020,2000,g  9.0,4.0
# From MPEC 2020-K19
245P/WISE,e,21.1975,316.6477,316.8481,4.043497,0.1212184,0.45742882,127.1871,12/24.0/2020,2000,g 14.0,4.0
# From MPEC 2020-W26
246P/NEAT,e,15.9873,78.7472,176.2898,4.015731,0.1224778,0.28682161,352.5561,12/24.0/2020,2000,g 10.5,4.0
# From MPC112394
247P/LINEAR,e,13.6535,54.0094,47.4865,3.969989,0.1246006,0.62431399,93.8591,12/24.0/2020,2000,g 16.5,2.0
# From MPC 75730
248P/Gibbs,e,6.3475,207.7571,209.8885,5.991295,0.0672083,0.63804943,243.8668,12/24.0/2020,2000,g 14.0,4.0
# From MPEC 2020-W26
249P/LINEAR,e,8.3963,239.1753,65.6111,2.762117,0.2147044,0.82013356,38.1108,12/24.0/2020,2000,g 15.5,4.0
# From MPC110497
250P/Larson,e,13.2016,73.5920,46.0756,3.758173,0.1352816,0.40233780,143.0555,12/24.0/2020,2000,g 14.5,4.0
# From MPC104795
251P/LINEAR,e,23.3996,219.3923,31.2753,3.510311,0.1498600,0.50530525,188.3125,12/24.0/2020,2000,g 16.5,2.0
# From MPC102956
252P/LINEAR,e,10.4095,190.9497,343.3050,3.050048,0.1850309,0.67199209,323.1896,12/24.0/2020,2000,g 17.5,4.0
# From MPC112394
253P/PANSTARRS,e,4.9429,146.8791,230.6338,3.467417,0.1526493,0.41362857,146.6959,12/24.0/2020,2000,g 14.5,4.0
# From MPEC 2020-W26
254P/McNaught,e,32.5728,129.1749,219.4910,4.612444,0.0994964,0.31988202,8.4855,12/24.0/2020,2000,g 11.0,4.0
# From NK 2214
255P/Levy,e,13.6433,276.2692,185.5809,2.940274,0.1954890,0.71537785,238.6762,12/24.0/2020,2000,g  9.0,4.0
# From MPC 84027
256P/LINEAR,e,27.6317,81.3517,124.2848,4.636872,0.0987112,0.41821990,280.2021,12/24.0/2020,2000,g 14.0,2.0
# From MPEC 2020-W26
257P/Catalina,e,20.2231,207.7347,117.6471,3.762322,0.1350580,0.43055221,14.0831,12/24.0/2020,2000,g 11.5,4.0
# From MPC 79655
258P/PANSTARRS,e,6.7460,126.2483,26.0764,4.400545,0.1067688,0.20885746,20.0337,12/24.0/2020,2000,g 13.0,4.0
# From MPC106349
259P/Garradd,e,15.8891,51.4549,257.6034,2.730564,0.2184366,0.33852575,270.1441,12/24.0/2020,2000,g 15.5,4.0
# From MPEC 2020-SI8
260P/McNaught,e,15.0546,349.3421,18.4056,3.622614,0.1429456,0.60900768,67.3238,12/24.0/2020,2000,g 13.5,4.0
# From MPEC 2019-TG9
261P/Larson,e,6.0759,291.1617,67.1401,3.489948,0.1511735,0.42311916,83.7776,12/24.0/2020,2000,g 14.0,4.0
# From MPC 82322
262P/McNaught-Russell,e,29.1915,217.8955,171.0038,6.875579,0.0546689,0.81534577,161.0291,12/24.0/2020,2000,g 13.5,4.0
# From MPC 89018
263P/Gibbs,e,11.5455,105.7948,34.4524,3.052688,0.1847908,0.59091655,217.9449,12/24.0/2020,2000,g  9.0,4.0
# From MPC114608
264P/Larsen,e,25.1310,220.7701,346.7236,3.897501,0.1280928,0.37470979,64.9392,12/24.0/2020,2000,g 13.0,4.0
# From MPC 79870
265P/LINEAR,e,14.3648,342.9271,33.4224,4.251777,0.1124212,0.64744693,354.7117,12/24.0/2020,2000,g 14.5,4.0
# From MPEC 2019-TG9
266P/Christensen,e,3.4261,4.9982,97.8302,3.534991,0.1482933,0.33944733,36.8588,12/24.0/2020,2000,g 12.5,4.0
# From MPC114608
267P/LONEOS,e,6.1379,228.6447,114.1132,3.212045,0.1712110,0.61414775,151.5699,12/24.0/2020,2000,g 19.5,4.0
# From MPC 92277
268P/Bernardi,e,16.1504,127.5899,359.9993,4.547648,0.1016304,0.47263814,210.3128,12/24.0/2020,2000,g 14.0,4.0
# From MPC104795
269P/Jedicke,e,7.0710,241.7044,225.9242,7.079019,0.0523292,0.43040269,119.1509,12/24.0/2020,2000,g 10.0,4.0
# From MPC 88332
270P/Gehrels,e,2.9184,222.9690,209.8730,6.667619,0.0572464,0.46713884,157.8389,12/24.0/2020,2000,g  8.0,4.0
# From MPC 92277
271P/van Houten-Lemmon,e,6.8681,9.3024,36.4297,7.046062,0.0526968,0.39373726,143.5125,12/24.0/2020,2000,g 11.0,4.0
# From MPC 81862
272P/NEAT,e,18.0762,109.4658,27.9627,4.455469,0.1048006,0.45422062,300.2317,12/24.0/2020,2000,g 16.0,2.0
# From MPC 82723
273P/Pons-Gambart,e,136.7835,320.4008,20.3171,31.77044,0.0055039,0.97406979,0.0000,12/17.5853/2012,2000,g 11.5,4.0
# From MPC 88332
274P/Tombaugh-Tenagra,e,15.8176,81.3380,38.5005,4.371759,0.1078251,0.43887348,309.2555,12/24.0/2020,2000,g 13.0,4.0
# From MPC 81862
275P/Hermann,e,21.2775,348.7574,174.0857,5.772086,0.0710730,0.71243223,207.8599,12/24.0/2020,2000,g 17.0,4.0
# From MPEC 2020-K19
276P/Vorobjov,e,14.8142,211.4183,199.8250,5.314870,0.0804387,0.26720637,243.0675,12/24.0/2020,2000,g 11.5,4.0
# From MPEC 2020-W26
277P/LINEAR,e,16.7789,276.3446,152.3167,3.852189,0.1303595,0.50560958,359.1957,12/24.0/2020,2000,g 14.0,4.0
# From MPEC 2020-W26
278P/McNaught,e,6.6849,15.4379,238.0945,3.695267,0.1387508,0.43522191,14.2821,12/24.0/2020,2000,g 14.0,4.0
# From MPC100285
279P/La Sagra,e,5.0522,346.2299,5.7697,3.574927,0.1458153,0.39828204,236.5420,12/24.0/2020,2000,g 14.0,4.0
# From MPC 89013
280P/Larsen,e,11.7752,131.3933,104.8016,4.529177,0.1022528,0.41782457,262.5076,12/24.0/2020,2000,g 12.5,4.0
# From MPC 83145
281P/MOSS,e,4.7197,87.1746,26.8090,4.870511,0.0916943,0.17169690,289.3099,12/24.0/2020,2000,g 11.0,4.0
# From MPC xxxxx
282P/,e,5.8107,9.2950,217.5778,4.243553,0.1127482,0.18909317,325.6927,12/24.0/2020,2000,g 13.5,2.0
# From MPEC 2013-M31
283P/Spacewatch,e,14.4542,161.1313,22.2604,4.139687,0.1170180,0.48498011,329.8048,12/24.0/2020,2000,g  9.0,4.0
# From MPEC 2020-K19
284P/McNaught,e,11.8593,144.2683,202.5770,3.677857,0.1397371,0.37605653,323.2352,12/24.0/2020,2000,g 13.0,4.0
# From MPC 85339
285P/LINEAR,e,25.0330,185.4941,178.4098,4.508586,0.1029541,0.61823948,282.8303,12/24.0/2020,2000,g 15.0,4.0
# From MPC 90771
286P/Christensen,e,17.0449,283.9620,24.7984,4.110085,0.1182845,0.42532053,300.3212,12/24.0/2020,2000,g 14.0,4.0
# From MPC 96868
287P/Christensen,e,16.3196,139.0436,188.8801,4.166645,0.1158842,0.27077807,253.1411,12/24.0/2020,2000,g 13.5,4.0
# From MPC xxxxx
288P/,e,3.2400,83.1889,280.6530,3.048340,0.1851863,0.20137448,279.5498,12/24.0/2020,2000,g 16.0,2.0
# From MPC118844
289P/Blanpain,e,5.8942,68.8870,9.8771,3.047444,0.1852680,0.68539799,68.3679,12/24.0/2020,2000,g  2.5,4.0
# From MPC 95214
290P/Jager,e,20.2554,302.6814,181.9765,6.191952,0.0639680,0.63384390,160.0168,12/24.0/2020,2000,g 10.5,4.0
# From MPC 89314
291P/NEAT,e,6.3160,238.1347,173.8895,4.517341,0.1026549,0.43588092,271.3770,12/24.0/2020,2000,g 13.0,4.0
# From MPC115887
292P/Li,e,24.2564,90.9910,319.4567,6.108691,0.0652803,0.58796526,164.5038,12/24.0/2020,2000,g 12.5,4.0
# From MPEC 2020-W26
